BANDWAGON-2 OBJECT D    
1 62380U 24247D   26068.52261193  .00011259  00000+0  40119-3 0  9994
2 62380  44.9954 115.6710 0003488 351.1453   8.9368 15.29076102 67732
STARLINK-34581          
1 64745U 25144X   26068.59684808  .00016463  00000+0  56700-3 0  9992
2 64745  53.1583 181.7583 0001364  77.0417 283.0736 15.30185599 39698
